ZHONGXING-1E            
1 53813U 22112A   26160.64315698 -.00000132  00000+0  00000+0 0  9990
2 53813   0.0480 106.4507 0000233 218.9291 245.5746  1.00270189 13776
SES-20                  
1 53960U 22123A   26160.34215403 -.00000084  00000+0  00000+0 0  9991
2 53960   0.0369  79.3383 0001932  15.8227 182.6353  1.00269457 13451
SES-21                  
1 53961U 22123B   26160.47349999  .00000086  00000+0  00000+0 0  9995
2 53961   0.0268  34.5519 0000882  42.4615 220.2829  1.00270189  7133
GALAXY 33 (G-33)        
1 54026U 22128A   26160.47418949  .00000096  00000+0  00000+0 0  9996
2 54026   0.0120 310.7698 0001836 134.5963 210.2085  1.00271439 13666
GALAXY 34 (G-34)        
1 54027U 22128B   26159.95980211  .00000075  00000+0  00000+0 0  9991
2 54027   0.0154 329.7482 0001861 136.9348   7.2031  1.00274719 13834
ANGOSAT 2               
1 54033U 22131A   26159.56211878  .00000151  00000+0  00000+0 0  9990
2 54033   0.0283  81.7064 0001337  30.9456   9.6608  1.00271763 13399
EUTELSAT HOTBIRD 13F    
1 54048U 22134A   26160.13051760  .00000104  00000+0  00000+0 0  9994
2 54048   0.0486 290.4942 0002085  68.8413 318.1724  1.00271656 13295
LDPE-2                  
1 54219U 22144A   26160.45184472  .00000144  00000+0  00000+0 0  9991
2 54219   5.5935  63.7126 0001795  99.1941  92.8838  1.00529098 11767
EUTELSAT HOTBIRD 13G    
1 54225U 22146A   26160.34445410  .00000103  00000+0  00000+0 0  9995
2 54225   0.0480 235.0729 0001626 312.2826 207.3694  1.00266735  7388
ZHONGXING-19            
1 54230U 22148A   26160.61549652 -.00000064  00000+0  00000+0 0  9993
2 54230   0.0188 283.4260 0002345 181.1777 178.1564  1.00271546 13309
GALAXY 31 (G-31)        
1 54243U 22153A   26160.46927714  .00000030  00000+0  00000+0 0  9997
2 54243   0.0130 270.6969 0001275 166.7987 228.2957  1.00272101  7053
GALAXY 32 (G-32)        
1 54244U 22153B   26160.32382733 -.00000157  00000+0  00000+0 0  9990
2 54244   0.0091 331.9838 0002164  65.0548 246.2445  1.00270919 13063
EUTELSAT 10B            
1 54259U 22157A   26159.91604612  .00000084  00000+0  00000+0 0  9994
2 54259   0.0624 101.3035 0002013  11.5283 124.2533  1.00268359 12948
GALAXY 35 (G-35)        
1 54741U 22170A   26160.45862207 -.00000145  00000+0  00000+0 0  9991
2 54741   0.0337 106.4075 0002031 335.1959 248.2408  1.00271145 12811
GALAXY 36 (G-36)        
1 54742U 22170B   26160.39555296 -.00000168  00000+0  00000+0 0  9997
2 54742   0.0150 151.7517 0002652 291.6745 227.7498  1.00270817 12699
METEOSAT-12 (MTG-I1)    
1 54743U 22170C   26160.34176741  .00000008  00000+0  00000+0 0  9999
2 54743   0.7292  21.5863 0003360  71.5154 287.2272  1.00271638 12893
SHIJIAN-23 (SJ-23)      
1 55131U 23002A   26160.65737200 -.00000193  00000+0  00000+0 0  9999
2 55131   3.6971  78.4065 0003825 274.2638 295.0863  1.00089548 12431
APSTAR-6E               
1 55239U 23005A   26159.63252955 -.00000301  00000+0  00000+0 0  9997
2 55239   0.0214 248.8845 0000992 305.5776  64.2622  1.00271697 18605
USA 342                 
1 55263U 23008A   26158.27898719  .00000152  00000+0  00000+0 0  9993
2 55263   0.0030 157.3806 0000352 136.6587  85.8740  1.00272218 12415
LDPE-3A                 
1 55264U 23008B   26160.44318723 -.00000080  00000+0  00000+0 0  9999
2 55264   2.3265  81.7589 0001144  54.8539 203.1241  0.99146188 11735
ELEKTRO-L 4             
1 55506U 23016A   26159.82498265 -.00000041  00000+0  00000+0 0  9994
2 55506   0.0723 176.6978 0000794 359.6847 183.6282  1.00272713 12254
AMAZONAS NEXUS          
1 55508U 23017A   26159.54553700 -.00000266  00000+0  00000+0 0  9991
2 55508   0.0356  30.7430 0005134  32.4463 329.1618  1.00269716  6953
ZHONGXING-26            
1 55686U 23023A   26159.79629953 -.00000337  00000+0  00000+0 0  9995
2 55686   0.0661  71.5230 0004059  14.9674 222.4710  1.00269750 12148
LUCH-5X (OLYMP-K 2)     
1 55841U 23031A   26160.71153512  .00000053  00000+0  00000+0 0  9998
2 55841   0.0260  55.6239 0001234 151.4285   9.1514  1.00259865 11861
GAOFEN-13 02            
1 55912U 23036A   26160.57475424 -.00000203  00000+0  00000+0 0  9993
2 55912   1.0192   0.1015 0004164 339.3002 273.7551  1.00272582 12010
SES-18                  
1 55970U 23038A   26160.34215403 -.00000084  00000+0  00000+0 0  9990
2 55970   0.0317 279.7091 0000117  77.1035 280.9865  1.00269986 12020
SES-19                  
1 55971U 23038B   26160.47488848  .00000105  00000+0  00000+0 0  9993
2 55971   0.0186 308.7290 0001650 133.9764 211.2070  1.00271870 12011
INTELSAT 40E (IS-40E)   
1 56174U 23052A   26160.39511963  .00000000  00000+0  00000+0 0  9995
2 56174   0.0146 340.9112 0002028 144.9716 183.1214  1.00268239 11744
VIASAT-3 F1             
1 56370U 23060A   26160.39555296  .00000000  00000+0  00000+0 0  9999
2 56370   0.0241 324.1711 0000799  98.2968 248.7155  1.00270590 11352
ARCTURUS                
1 56371U 23060B   26160.49883235 -.00000046  00000+0  00000+0 0  9999
2 56371   2.7566  80.0382 0002273  43.7060  26.1825  1.00271971 11380
GS-1                    
1 56372U 23060C   26159.64661679 -.00000208  00000+0  00000+0 0  9991
2 56372   2.7050  79.9310 0004125 279.9950 219.1575  1.00277054  7453
